QIANFAN-97              
1 66039U 25233G   26027.95259424  .00000056  00000+0  67759-4 0  9994
2 66039  88.9916  57.3894 0001859  90.0151 270.1213 13.50992978 14253
QIANFAN-98              
1 66040U 25233H   26027.38637135 -.02013825  00000+0 -28689+1 0  9999
2 66040  88.9905  57.1970 0019337 244.5104 115.4053 13.60268261 14312
QIANFAN-99              
1 66041U 25233J   26027.89086511  .00000056  00000+0  68615-4 0  9997
2 66041  88.9917  57.3988 0001904 102.2622 257.8743 13.50992870 14241
QIANFAN-100             
1 66042U 25233K   26027.88262853  .00000067  00000+0  85904-4 0  9994
2 66042  88.9928  57.3110 0001892  89.3706 270.7662 13.50994216 14290
QIANFAN-101             
1 66043U 25233L   26027.88660064  .00000332  00000+0  13143-3 0  9991
2 66043  88.9917  56.7027 0012840 239.3295 120.6634 14.26702850 14628
QIANFAN-102             
1 66044U 25233M   26027.92313857  .00000065  00000+0  73376-4 0  9990
2 66044  88.9914  57.3133 0013010 261.2353  98.7329 13.57813274 14295
QIANFAN-103             
1 66045U 25233N   26027.90724606  .00000044  00000+0  50019-4 0  9993
2 66045  88.9917  57.4013 0001890  88.7525 271.3842 13.50987768 14240
QIANFAN-104             
1 66046U 25233P   26027.91416398  .00000113  00000+0  14619-3 0  9993
2 66046  88.9923  57.2970 0013498 256.0097 103.9556 13.55250401 14300
